[Satellite]
VERSION=1.1
NAME=CZ-6A DEB
NICKNAME=CZ-6A DEB
TLE1=1 54425U 22151EZ  22342.30796230  .00002298  00000+0  53491-3 0  9999
TLE2=2 54425  98.9479 349.4654 0148249 163.7732 196.8283 14.49414872  3554
STATUS=0
